[{"OBJECT_NAME":"STARLINK-31247","OBJECT_ID":"2024-046F","EPOCH":"2026-03-09T12:46:47.618112","MEAN_MOTION":15.30182497,"ECCENTRICITY":0.00011714,"INCLINATION":53.1583,"RA_OF_ASC_NODE":156.2,"ARG_OF_PERICENTER":83.8857,"MEAN_ANOMALY":276.2277,"EPHEMERIS_TYPE":0,"CLASSIFICATION_TYPE":"U","NORAD_CAT_ID":59206,"ELEMENT_SET_NO":999,"REV_AT_EPOCH":11302,"BSTAR":-2.136432e-5,"MEAN_MOTION_DOT":-9.91e-6,"MEAN_MOTION_DDOT":0},{"OBJECT_NAME":"TEVEL2-5","OBJECT_ID":"2025-052E","EPOCH":"2026-03-09T23:11:54.246048","MEAN_MOTION":15.30817434,"ECCENTRICITY":0.00047002,"INCLINATION":97.4013,"RA_OF_ASC_NODE":325.3677,"ARG_OF_PERICENTER":95.3936,"MEAN_ANOMALY":264.7842,"EPHEMERIS_TYPE":0,"CLASSIFICATION_TYPE":"U","NORAD_CAT_ID":63214,"ELEMENT_SET_NO":999,"REV_AT_EPOCH":5491,"BSTAR":0.00071764727,"MEAN_MOTION_DOT":0.00021339,"MEAN_MOTION_DDOT":0}]
